{
  "type": "FeatureCollection",
  "features": [
    {
      "type": "Feature",
      "properties": {
        "norad_id": 30701,
        "name": "FENGYUN 1C DEB",
        "group": "fengyun-1c-debris",
        "lat": 33.25486038212353,
        "lon": -145.70057588188405,
        "alt_km": 825.5079171459265,
        "timestamp": "2025-12-13T05:42:57.837517+00:00",
        "meta_object_name": "FENGYUN 1C DEB",
        "meta_object_id": "1999-025ARK",
        "meta_epoch": "2025-12-12T01:59:39.037344",
        "meta_mean_motion": 14.13934477,
        "meta_eccentricity": 0.00357239,
        "meta_inclination": 98.7185,
        "meta_ra_of_asc_node": 27.3978,
        "meta_arg_of_pericenter": 104.5729,
        "meta_mean_anomaly": 285.1035,
        "meta_ephemeris_type": 0,
        "meta_classification_type": "U",
        "meta_norad_cat_id": 30701,
        "meta_element_set_no": 999,
        "meta_rev_at_epoch": 97110,
        "meta_bstar": 2.0011296e-05,
        "meta_mean_motion_dot": -4e-08,
        "meta_mean_motion_ddot": 0,
        "tle_line1": "1 30701U 99025ARK 25346.08309071 -.00000004  00000+0  20011-4 0  9996",
        "tle_line2": "2 30701  98.7185  27.3978 0035723 104.5729 285.1035 14.13934477971100"
      },
      "geometry": {
        "type": "Point",
        "coordinates": [
          -145.70057588188405,
          33.25486038212353
        ]
      }
    },
    {
      "type": "Feature",
      "properties": {
        "norad_id": 30702,
        "name": "FENGYUN 1C DEB",
        "group": "fengyun-1c-debris",
        "lat": 69.50085009768915,
        "lon": -17.325576287010623,
        "alt_km": 907.0742760419125,
        "timestamp": "2025-12-13T05:42:57.837528+00:00",
        "meta_object_name": "FENGYUN 1C DEB",
        "meta_object_id": "1999-025ARL",
        "meta_epoch": "2025-12-12T07:12:33.480000",
        "meta_mean_motion": 14.03590732,
        "meta_eccentricity": 0.00685306,
        "meta_inclination": 98.7697,
        "meta_ra_of_asc_node": 6.1561,
        "meta_arg_of_pericenter": 303.0211,
        "meta_mean_anomaly": 71.8944,
        "meta_ephemeris_type": 0,
        "meta_classification_type": "U",
        "meta_norad_cat_id": 30702,
        "meta_element_set_no": 999,
        "meta_rev_at_epoch": 96156,
        "meta_bstar": 0.001113666,
        "meta_mean_motion_dot": 1.742e-05,
        "meta_mean_motion_ddot": 0,
        "tle_line1": "1 30702U 99025ARL 25346.30038750  .00001742  00000+0  11137-2 0  9991",
        "tle_line2": "2 30702  98.7697   6.1561 0068530 303.0211  71.8944 14.03590732961565"
      },
      "geometry": {
        "type": "Point",
        "coordinates": [
          -17.325576287010623,
          69.50085009768915
        ]
      }
    },
    {
      "type": "Feature",
      "properties": {
        "norad_id": 30703,
        "name": "FENGYUN 1C DEB",
        "group": "fengyun-1c-debris",
        "lat": -19.157901845422387,
        "lon": 149.0758004426124,
        "alt_km": 833.6695472153106,
        "timestamp": "2025-12-13T05:42:57.837539+00:00",
        "meta_object_name": "FENGYUN 1C DEB",
        "meta_object_id": "1999-025ARM",
        "meta_epoch": "2025-12-12T05:10:29.053056",
        "meta_mean_motion": 14.19321542,
        "meta_eccentricity": 0.01177233,
        "meta_inclination": 99.1424,
        "meta_ra_of_asc_node": 331.228,
        "meta_arg_of_pericenter": 293.5687,
        "meta_mean_anomaly": 85.1635,
        "meta_ephemeris_type": 0,
        "meta_classification_type": "U",
        "meta_norad_cat_id": 30703,
        "meta_element_set_no": 999,
        "meta_rev_at_epoch": 96533,
        "meta_bstar": 0.0018520969,
        "meta_mean_motion_dot": 4.121e-05,
        "meta_mean_motion_ddot": 0,
        "tle_line1": "1 30703U 99025ARM 25346.21561404  .00004121  00000+0  18521-2 0  9997",
        "tle_line2": "2 30703  99.1424 331.2280 0117723 293.5687  85.1635 14.19321542965330"
      },
      "geometry": {
        "type": "Point",
        "coordinates": [
          149.0758004426124,
          -19.157901845422387
        ]
      }
    },
    {
      "type": "Feature",
      "properties": {
        "norad_id": 30704,
        "name": "FENGYUN 1C DEB",
        "group": "fengyun-1c-debris",
        "lat": 65.77243482877442,
        "lon": -173.72442110325574,
        "alt_km": 822.6492620474901,
        "timestamp": "2025-12-13T05:42:57.837549+00:00",
        "meta_object_name": "FENGYUN 1C DEB",
        "meta_object_id": "1999-025ARN",
        "meta_epoch": "2025-12-12T05:29:42.080064",
        "meta_mean_motion": 14.0204683,
        "meta_eccentricity": 0.00817112,
        "meta_inclination": 98.8722,
        "meta_ra_of_asc_node": 344.9831,
        "meta_arg_of_pericenter": 101.2733,
        "meta_mean_anomaly": 320.0425,
        "meta_ephemeris_type": 0,
        "meta_classification_type": "U",
        "meta_norad_cat_id": 30704,
        "meta_element_set_no": 999,
        "meta_rev_at_epoch": 96104,
        "meta_bstar": 0.0006060057,
        "meta_mean_motion_dot": 9.1e-06,
        "meta_mean_motion_ddot": 0,
        "tle_line1": "1 30704U 99025ARN 25346.22895926  .00000910  00000+0  60601-3 0  9997",
        "tle_line2": "2 30704  98.8722 344.9831 0081711 101.2733 320.0425 14.02046830961043"
      },
      "geometry": {
        "type": "Point",
        "coordinates": [
          -173.72442110325574,
          65.77243482877442
        ]
      }
    },
    {
      "type": "Feature",
      "properties": {
        "norad_id": 30705,
        "name": "FENGYUN 1C DEB",
        "group": "fengyun-1c-debris",
        "lat": 48.75436142647525,
        "lon": -74.18554731590334,
        "alt_km": 1082.4894403802973,
        "timestamp": "2025-12-13T05:42:57.837560+00:00",
        "meta_object_name": "FENGYUN 1C DEB",
        "meta_object_id": "1999-025ARP",
        "meta_epoch": "2025-12-11T13:12:25.417152",
        "meta_mean_motion": 13.81310468,
        "meta_eccentricity": 0.01997345,
        "meta_inclination": 102.18,
        "meta_ra_of_asc_node": 89.3834,
        "meta_arg_of_pericenter": 284.9663,
        "meta_mean_anomaly": 96.4341,
        "meta_ephemeris_type": 0,
        "meta_classification_type": "U",
        "meta_norad_cat_id": 30705,
        "meta_element_set_no": 999,
        "meta_rev_at_epoch": 93993,
        "meta_bstar": 0.0033165869,
        "meta_mean_motion_dot": 4.031e-05,
        "meta_mean_motion_ddot": 0,
        "tle_line1": "1 30705U 99025ARP 25345.55029418  .00004031  00000+0  33166-2 0  9991",
        "tle_line2": "2 30705 102.1800  89.3834 0199734 284.9663  96.4341 13.81310468939930"
      },
      "geometry": {
        "type": "Point",
        "coordinates": [
          -74.18554731590334,
          48.75436142647525
        ]
      }
    },
    {
      "type": "Feature",
      "properties": {
        "norad_id": 30706,
        "name": "FENGYUN 1C DEB",
        "group": "fengyun-1c-debris",
        "lat": 29.663202310982808,
        "lon": 67.07950289497578,
        "alt_km": 784.613648296965,
        "timestamp": "2025-12-13T05:42:57.837570+00:00",
        "meta_object_name": "FENGYUN 1C DEB",
        "meta_object_id": "1999-025ARQ",
        "meta_epoch": "2025-12-12T05:26:56.483232",
        "meta_mean_motion": 14.2642193,
        "meta_eccentricity": 0.00265024,
        "meta_inclination": 99.0648,
        "meta_ra_of_asc_node": 240.8165,
        "meta_arg_of_pericenter": 129.8116,
        "meta_mean_anomaly": 230.5402,
        "meta_ephemeris_type": 0,
        "meta_classification_type": "U",
        "meta_norad_cat_id": 30706,
        "meta_element_set_no": 999,
        "meta_rev_at_epoch": 97620,
        "meta_bstar": 0.0013052373,
        "meta_mean_motion_dot": 3.106e-05,
        "meta_mean_motion_ddot": 0,
        "tle_line1": "1 30706U 99025ARQ 25346.22704263  .00003106  00000+0  13052-2 0  9999",
        "tle_line2": "2 30706  99.0648 240.8165 0026502 129.8116 230.5402 14.26421930976205"
      },
      "geometry": {
        "type": "Point",
        "coordinates": [
          67.07950289497578,
          29.663202310982808
        ]
      }
    },
    {
      "type": "Feature",
      "properties": {
        "norad_id": 30707,
        "name": "FENGYUN 1C DEB",
        "group": "fengyun-1c-debris",
        "lat": 20.65510109859092,
        "lon": 38.06503749332307,
        "alt_km": 789.174615682723,
        "timestamp": "2025-12-13T05:42:57.837581+00:00",
        "meta_object_name": "FENGYUN 1C DEB",
        "meta_object_id": "1999-025ARR",
        "meta_epoch": "2025-12-12T02:49:27.346368",
        "meta_mean_motion": 14.26679363,
        "meta_eccentricity": 0.00278275,
        "meta_inclination": 99.4127,
        "meta_ra_of_asc_node": 40.4463,
        "meta_arg_of_pericenter": 71.8098,
        "meta_mean_anomaly": 317.7527,
        "meta_ephemeris_type": 0,
        "meta_classification_type": "U",
        "meta_norad_cat_id": 30707,
        "meta_element_set_no": 999,
        "meta_rev_at_epoch": 96794,
        "meta_bstar": 0.0022821178,
        "meta_mean_motion_dot": 5.494e-05,
        "meta_mean_motion_ddot": 0,
        "tle_line1": "1 30707U 99025ARR 25346.11767762  .00005494  00000+0  22821-2 0  9997",
        "tle_line2": "2 30707  99.4127  40.4463 0027827  71.8098 317.7527 14.26679363967945"
      },
      "geometry": {
        "type": "Point",
        "coordinates": [
          38.06503749332307,
          20.65510109859092
        ]
      }
    }
  ]
}